{
  "type": "FeatureCollection",
  "features": [
    {
      "type": "Feature",
      "properties": {
        "norad_id": 31307,
        "name": "GALAXY 17 (G-17)",
        "group": "intelsat",
        "lat": 1.3622291127885766,
        "lon": -130.74592852105317,
        "alt_km": 35766.24543178649,
        "timestamp": "2025-12-24T14:43:28.663274+00:00",
        "meta_object_name": "GALAXY 17 (G-17)",
        "meta_object_id": "2007-016B",
        "meta_epoch": "2025-12-24T05:50:54.313152",
        "meta_mean_motion": 1.00269284,
        "meta_eccentricity": 0.00053646,
        "meta_inclination": 2.5271,
        "meta_ra_of_asc_node": 82.1552,
        "meta_arg_of_pericenter": 172.9559,
        "meta_mean_anomaly": 200.6435,
        "meta_ephemeris_type": 0,
        "meta_classification_type": "U",
        "meta_norad_cat_id": 31307,
        "meta_element_set_no": 999,
        "meta_rev_at_epoch": 6805,
        "meta_bstar": 0,
        "meta_mean_motion_dot": -1.86e-06,
        "meta_mean_motion_ddot": 0,
        "tle_line1": "1 31307U 07016B   25358.24368418 -.00000186  00000+0  00000+0 0  9991",
        "tle_line2": "2 31307   2.5271  82.1552 0005364 172.9559 200.6435  1.00269284 68053"
      },
      "geometry": {
        "type": "Point",
        "coordinates": [
          -130.74592852105317,
          1.3622291127885766
        ]
      }
    },
    {
      "type": "Feature",
      "properties": {
        "norad_id": 31862,
        "name": "DIRECTV 10",
        "group": "intelsat",
        "lat": -0.00035276773845092127,
        "lon": -148.56034992760186,
        "alt_km": 35792.20857848801,
        "timestamp": "2025-12-24T14:43:28.663293+00:00",
        "meta_object_name": "DIRECTV 10",
        "meta_object_id": "2007-032A",
        "meta_epoch": "2025-12-24T05:08:38.005728",
        "meta_mean_motion": 1.0025857,
        "meta_eccentricity": 6.623e-05,
        "meta_inclination": 0.009,
        "meta_ra_of_asc_node": 110.3088,
        "meta_arg_of_pericenter": 311.1465,
        "meta_mean_anomaly": 5.9014,
        "meta_ephemeris_type": 0,
        "meta_classification_type": "U",
        "meta_norad_cat_id": 31862,
        "meta_element_set_no": 999,
        "meta_rev_at_epoch": 4383,
        "meta_bstar": 0,
        "meta_mean_motion_dot": -8e-07,
        "meta_mean_motion_ddot": 0,
        "tle_line1": "1 31862U 07032A   25358.21432877 -.00000080  00000+0  00000+0 0  9996",
        "tle_line2": "2 31862   0.0090 110.3088 0000662 311.1465   5.9014  1.00258570 43832"
      },
      "geometry": {
        "type": "Point",
        "coordinates": [
          -148.56034992760186,
          -0.00035276773845092127
        ]
      }
    },
    {
      "type": "Feature",
      "properties": {
        "norad_id": 32253,
        "name": "INTELSAT 11 (IS-11)",
        "group": "intelsat",
        "lat": 2.2876328123751755,
        "lon": 127.62843704261348,
        "alt_km": 36151.43017996315,
        "timestamp": "2025-12-24T14:43:28.663306+00:00",
        "meta_object_name": "INTELSAT 11 (IS-11)",
        "meta_object_id": "2007-044B",
        "meta_epoch": "2025-12-24T05:36:51.715296",
        "meta_mean_motion": 0.99053001,
        "meta_eccentricity": 0.00085819,
        "meta_inclination": 3.1083,
        "meta_ra_of_asc_node": 80.849,
        "meta_arg_of_pericenter": 170.7151,
        "meta_mean_anomaly": 100.8302,
        "meta_ephemeris_type": 0,
        "meta_classification_type": "U",
        "meta_norad_cat_id": 32253,
        "meta_element_set_no": 999,
        "meta_rev_at_epoch": 6671,
        "meta_bstar": 0,
        "meta_mean_motion_dot": -1.66e-06,
        "meta_mean_motion_ddot": 0,
        "tle_line1": "1 32253U 07044B   25358.23393189 -.00000166  00000+0  00000+0 0  9993",
        "tle_line2": "2 32253   3.1083  80.8490 0008581 170.7151 100.8302  0.99053001 66716"
      },
      "geometry": {
        "type": "Point",
        "coordinates": [
          127.62843704261348,
          2.2876328123751755
        ]
      }
    },
    {
      "type": "Feature",
      "properties": {
        "norad_id": 32388,
        "name": "HORIZONS-2",
        "group": "intelsat",
        "lat": 0.8046180430575184,
        "lon": -119.56331852588846,
        "alt_km": 35770.845121799626,
        "timestamp": "2025-12-24T14:43:28.663318+00:00",
        "meta_object_name": "HORIZONS-2",
        "meta_object_id": "2007-063B",
        "meta_epoch": "2025-12-24T05:01:01.145856",
        "meta_mean_motion": 1.0027005,
        "meta_eccentricity": 0.00047204,
        "meta_inclination": 2.1496,
        "meta_ra_of_asc_node": 82.8372,
        "meta_arg_of_pericenter": 196.0554,
        "meta_mean_anomaly": 175.5566,
        "meta_ephemeris_type": 0,
        "meta_classification_type": "U",
        "meta_norad_cat_id": 32388,
        "meta_element_set_no": 999,
        "meta_rev_at_epoch": 6606,
        "meta_bstar": 0,
        "meta_mean_motion_dot": -2.33e-06,
        "meta_mean_motion_ddot": 0,
        "tle_line1": "1 32388U 07063B   25358.20904104 -.00000233  00000+0  00000+0 0  9990",
        "tle_line2": "2 32388   2.1496  82.8372 0004720 196.0554 175.5566  1.00270050 66069"
      },
      "geometry": {
        "type": "Point",
        "coordinates": [
          -119.56331852588846,
          0.8046180430575184
        ]
      }
    },
    {
      "type": "Feature",
      "properties": {
        "norad_id": 32729,
        "name": "DIRECTV 11",
        "group": "intelsat",
        "lat": 0.002198705530978058,
        "lon": -144.97384491318212,
        "alt_km": 35793.17081784121,
        "timestamp": "2025-12-24T14:43:28.663332+00:00",
        "meta_object_name": "DIRECTV 11",
        "meta_object_id": "2008-013A",
        "meta_epoch": "2025-12-24T05:18:53.057952",
        "meta_mean_motion": 1.00254729,
        "meta_eccentricity": 6.191e-05,
        "meta_inclination": 0.0035,
        "meta_ra_of_asc_node": 229.4392,
        "meta_arg_of_pericenter": 193.9717,
        "meta_mean_anomaly": 10.1076,
        "meta_ephemeris_type": 0,
        "meta_classification_type": "U",
        "meta_norad_cat_id": 32729,
        "meta_element_set_no": 999,
        "meta_rev_at_epoch": 4383,
        "meta_bstar": 0,
        "meta_mean_motion_dot": 0,
        "meta_mean_motion_ddot": 0,
        "tle_line1": "1 32729U 08013A   25358.22144743  .00000000  00000+0  00000+0 0  9993",
        "tle_line2": "2 32729   0.0035 229.4392 0000619 193.9717  10.1076  1.00254729 43830"
      },
      "geometry": {
        "type": "Point",
        "coordinates": [
          -144.97384491318212,
          0.002198705530978058
        ]
      }
    },
    {
      "type": "Feature",
      "properties": {
        "norad_id": 32951,
        "name": "GALAXY 18 (G-18)",
        "group": "intelsat",
        "lat": -0.010745925018081847,
        "lon": -168.79268690301706,
        "alt_km": 35785.337640821825,
        "timestamp": "2025-12-24T14:43:28.663349+00:00",
        "meta_object_name": "GALAXY 18 (G-18)",
        "meta_object_id": "2008-024A",
        "meta_epoch": "2025-12-24T06:07:38.601696",
        "meta_mean_motion": 1.0027203,
        "meta_eccentricity": 0.00029795,
        "meta_inclination": 0.0126,
        "meta_ra_of_asc_node": 303.6949,
        "meta_arg_of_pericenter": 334.5596,
        "meta_mean_anomaly": 143.6815,
        "meta_ephemeris_type": 0,
        "meta_classification_type": "U",
        "meta_norad_cat_id": 32951,
        "meta_element_set_no": 999,
        "meta_rev_at_epoch": 4409,
        "meta_bstar": 0,
        "meta_mean_motion_dot": 4.6e-07,
        "meta_mean_motion_ddot": 0,
        "tle_line1": "1 32951U 08024A   25358.25530789  .00000046  00000+0  00000+0 0  9994",
        "tle_line2": "2 32951   0.0126 303.6949 0002979 334.5596 143.6815  1.00272030 44097"
      },
      "geometry": {
        "type": "Point",
        "coordinates": [
          -168.79268690301706,
          -0.010745925018081847
        ]
      }
    },
    {
      "type": "Feature",
      "properties": {
        "norad_id": 33153,
        "name": "INTELSAT 25 (IS-25)",
        "group": "intelsat",
        "lat": -0.8022760021790734,
        "lon": -77.24733344537643,
        "alt_km": 35765.84540970937,
        "timestamp": "2025-12-24T14:43:28.663361+00:00",
        "meta_object_name": "INTELSAT 25 (IS-25)",
        "meta_object_id": "2008-034A",
        "meta_epoch": "2025-12-24T04:08:38.441760",
        "meta_mean_motion": 1.00272349,
        "meta_eccentricity": 0.00048767,
        "meta_inclination": 2.2553,
        "meta_ra_of_asc_node": 82.5273,
        "meta_arg_of_pericenter": 188.4652,
        "meta_mean_anomaly": 212.6224,
        "meta_ephemeris_type": 0,
        "meta_classification_type": "U",
        "meta_norad_cat_id": 33153,
        "meta_element_set_no": 999,
        "meta_rev_at_epoch": 6394,
        "meta_bstar": 0,
        "meta_mean_motion_dot": -2.04e-06,
        "meta_mean_motion_ddot": 0,
        "tle_line1": "1 33153U 08034A   25358.17266715 -.00000204  00000+0  00000+0 0  9993",
        "tle_line2": "2 33153   2.2553  82.5273 0004876 188.4652 212.6224  1.00272349 63949"
      },
      "geometry": {
        "type": "Point",
        "coordinates": [
          -77.24733344537643,
          -0.8022760021790734
        ]
      }
    }
  ]
}